[
  {
    "OBJECT_NAME": "STARLINK-3200",
    "OBJECT_ID": "21115AF",
    "EPOCH": "2025-11-11T06:51:25.721568",
    "MEAN_MOTION": 15.08848714,
    "ECCENTRICITY": 0.0001303,
    "INCLINATION": 53.2176,
    "RA_OF_ASC_NODE": 320.6547,
    "ARG_OF_PERICENTER": 96.8374,
    "MEAN_ANOMALY": 263.2766,
    "EPHEMERIS_TYPE": 0,
    "CLASSIFICATION_TYPE": "U",
    "NORAD_CAT_ID": 49753,
    "ELEMENT_SET_NO": 999,
    "REV_AT_EPOCH": 21766,
    "BSTAR": 4.295e-05,
    "MEAN_MOTION_DOT": 3.96e-06,
    "MEAN_MOTION_DDOT": 0.0,
    "TLE_LINE1": "1 49753U 21115AF  25315.28571437  .00000396  00000+0  42950-4 0  9992",
    "TLE_LINE2": "2 49753  53.2176 320.6547 0001303  96.8374 263.2766 15.08848714217665",
    "COMMENT": "Grouped by shell and plane from TLE"
  },
  {
    "OBJECT_NAME": "STARLINK-3210",
    "OBJECT_ID": "21115AH",
    "EPOCH": "2025-11-11T07:08:42.421344",
    "MEAN_MOTION": 15.08846449,
    "ECCENTRICITY": 0.0001333,
    "INCLINATION": 53.2172,
    "RA_OF_ASC_NODE": 320.6517,
    "ARG_OF_PERICENTER": 87.2402,
    "MEAN_ANOMALY": 272.8742,
    "EPHEMERIS_TYPE": 0,
    "CLASSIFICATION_TYPE": "U",
    "NORAD_CAT_ID": 49755,
    "ELEMENT_SET_NO": 999,
    "REV_AT_EPOCH": 21766,
    "BSTAR": 8.1223e-05,
    "MEAN_MOTION_DOT": 1.005e-05,
    "MEAN_MOTION_DDOT": 0.0,
    "TLE_LINE1": "1 49755U 21115AH  25315.29771321  .00001005  00000+0  81223-4 0  9993",
    "TLE_LINE2": "2 49755  53.2172 320.6517 0001333  87.2402 272.8742 15.08846449217662",
    "COMMENT": "Grouped by shell and plane from TLE"
  },
  {
    "OBJECT_NAME": "STARLINK-4004",
    "OBJECT_ID": "22053A",
    "EPOCH": "2025-11-11T06:07:06.374496",
    "MEAN_MOTION": 15.08849702,
    "ECCENTRICITY": 0.0001699,
    "INCLINATION": 53.2178,
    "RA_OF_ASC_NODE": 325.8057,
    "ARG_OF_PERICENTER": 77.0063,
    "MEAN_ANOMALY": 283.1119,
    "EPHEMERIS_TYPE": 0,
    "CLASSIFICATION_TYPE": "U",
    "NORAD_CAT_ID": 52656,
    "ELEMENT_SET_NO": 999,
    "REV_AT_EPOCH": 19323,
    "BSTAR": 0.0,
    "MEAN_MOTION_DOT": -1.065e-05,
    "MEAN_MOTION_DDOT": 0.0,
    "TLE_LINE1": "1 52656U 22053A   25315.25493489 -.00001065  00000+0 -48823-4 0  9998",
    "TLE_LINE2": "2 52656  53.2178 325.8057 0001699  77.0063 283.1119 15.08849702193237",
    "COMMENT": "Grouped by shell and plane from TLE"
  },
  {
    "OBJECT_NAME": "STARLINK-4084",
    "OBJECT_ID": "22053B",
    "EPOCH": "2025-11-11T07:00:09.277920",
    "MEAN_MOTION": 15.08844557,
    "ECCENTRICITY": 0.0001379,
    "INCLINATION": 53.2178,
    "RA_OF_ASC_NODE": 325.944,
    "ARG_OF_PERICENTER": 95.1781,
    "MEAN_ANOMALY": 264.9368,
    "EPHEMERIS_TYPE": 0,
    "CLASSIFICATION_TYPE": "U",
    "NORAD_CAT_ID": 52657,
    "ELEMENT_SET_NO": 999,
    "REV_AT_EPOCH": 19353,
    "BSTAR": 3.9352e-06,
    "MEAN_MOTION_DOT": -2.25e-06,
    "MEAN_MOTION_DDOT": 0.0,
    "TLE_LINE1": "1 52657U 22053B   25315.29177405 -.00000225  00000+0  39352-5 0  9994",
    "TLE_LINE2": "2 52657  53.2178 325.9440 0001379  95.1781 264.9368 15.08844557193537",
    "COMMENT": "Grouped by shell and plane from TLE"
  },
  {
    "OBJECT_NAME": "STARLINK-4082",
    "OBJECT_ID": "22053C",
    "EPOCH": "2025-11-11T06:11:03.806016",
    "MEAN_MOTION": 15.08827956,
    "ECCENTRICITY": 0.0001702,
    "INCLINATION": 53.2186,
    "RA_OF_ASC_NODE": 325.7827,
    "ARG_OF_PERICENTER": 96.9573,
    "MEAN_ANOMALY": 263.1613,
    "EPHEMERIS_TYPE": 0,
    "CLASSIFICATION_TYPE": "U",
    "NORAD_CAT_ID": 52658,
    "ELEMENT_SET_NO": 999,
    "REV_AT_EPOCH": 19335,
    "BSTAR": 5.8960000000000005e-05,
    "MEAN_MOTION_DOT": 6.5e-06,
    "MEAN_MOTION_DDOT": 0.0,
    "TLE_LINE1": "1 52658U 22053C   25315.25768294  .00000650  00000+0  58960-4 0  9999",
    "TLE_LINE2": "2 52658  53.2186 325.7827 0001702  96.9573 263.1613 15.08827956193350",
    "COMMENT": "Grouped by shell and plane from TLE"
  },
  {
    "OBJECT_NAME": "STARLINK-3960",
    "OBJECT_ID": "22053D",
    "EPOCH": "2025-11-11T07:41:06.019584",
    "MEAN_MOTION": 15.08835229,
    "ECCENTRICITY": 0.0001308,
    "INCLINATION": 53.2184,
    "RA_OF_ASC_NODE": 325.4557,
    "ARG_OF_PERICENTER": 91.6849,
    "MEAN_ANOMALY": 268.4293,
    "EPHEMERIS_TYPE": 0,
    "CLASSIFICATION_TYPE": "U",
    "NORAD_CAT_ID": 52659,
    "ELEMENT_SET_NO": 999,
    "REV_AT_EPOCH": 19335,
    "BSTAR": 0.00021619,
    "MEAN_MOTION_DOT": 3.154e-05,
    "MEAN_MOTION_DDOT": 0.0,
    "TLE_LINE1": "1 52659U 22053D   25315.32020856  .00003154  00000+0  21619-3 0  9995",
    "TLE_LINE2": "2 52659  53.2184 325.4557 0001308  91.6849 268.4293 15.08835229193350",
    "COMMENT": "Grouped by shell and plane from TLE"
  },
  {
    "OBJECT_NAME": "STARLINK-4081",
    "OBJECT_ID": "22053E",
    "EPOCH": "2025-11-11T07:35:48.789024",
    "MEAN_MOTION": 15.0884053,
    "ECCENTRICITY": 0.0001542,
    "INCLINATION": 53.2171,
    "RA_OF_ASC_NODE": 325.5179,
    "ARG_OF_PERICENTER": 77.4082,
    "MEAN_ANOMALY": 282.7082,
    "EPHEMERIS_TYPE": 0,
    "CLASSIFICATION_TYPE": "U",
    "NORAD_CAT_ID": 52660,
    "ELEMENT_SET_NO": 999,
    "REV_AT_EPOCH": 19324,
    "BSTAR": 0.00016006,
    "MEAN_MOTION_DOT": 2.26e-05,
    "MEAN_MOTION_DDOT": 0.0,
    "TLE_LINE1": "1 52660U 22053E   25315.31653691  .00002260  00000+0  16006-3 0  9996",
    "TLE_LINE2": "2 52660  53.2171 325.5179 0001542  77.4082 282.7082 15.08840530193244",
    "COMMENT": "Grouped by shell and plane from TLE"
  },
  {
    "OBJECT_NAME": "STARLINK-4042",
    "OBJECT_ID": "22053F",
    "EPOCH": "2025-11-11T07:30:30.911328",
    "MEAN_MOTION": 15.08843809,
    "ECCENTRICITY": 0.0001403,
    "INCLINATION": 53.2174,
    "RA_OF_ASC_NODE": 325.5356,
    "ARG_OF_PERICENTER": 92.4084,
    "MEAN_ANOMALY": 267.7068,
    "EPHEMERIS_TYPE": 0,
    "CLASSIFICATION_TYPE": "U",
    "NORAD_CAT_ID": 52661,
    "ELEMENT_SET_NO": 999,
    "REV_AT_EPOCH": 19317,
    "BSTAR": 6.945200000000001e-05,
    "MEAN_MOTION_DOT": 8.18e-06,
    "MEAN_MOTION_DDOT": 0.0,
    "TLE_LINE1": "1 52661U 22053F   25315.31285777  .00000818  00000+0  69452-4 0  9994",
    "TLE_LINE2": "2 52661  53.2174 325.5356 0001403  92.4084 267.7068 15.08843809193171",
    "COMMENT": "Grouped by shell and plane from TLE"
  },
  {
    "OBJECT_NAME": "STARLINK-4044",
    "OBJECT_ID": "22053G",
    "EPOCH": "2025-11-11T07:19:54.880320",
    "MEAN_MOTION": 15.08840143,
    "ECCENTRICITY": 0.0001549,
    "INCLINATION": 53.2185,
    "RA_OF_ASC_NODE": 325.5677,
    "ARG_OF_PERICENTER": 91.4288,
    "MEAN_ANOMALY": 268.6882,
    "EPHEMERIS_TYPE": 0,
    "CLASSIFICATION_TYPE": "U",
    "NORAD_CAT_ID": 52662,
    "ELEMENT_SET_NO": 999,
    "REV_AT_EPOCH": 19317,
    "BSTAR": 2.8008e-05,
    "MEAN_MOTION_DOT": 1.58e-06,
    "MEAN_MOTION_DDOT": 0.0,
    "TLE_LINE1": "1 52662U 22053G   25315.30549630  .00000158  00000+0  28008-4 0  9994",
    "TLE_LINE2": "2 52662  53.2185 325.5677 0001549  91.4288 268.6882 15.08840143193178",
    "COMMENT": "Grouped by shell and plane from TLE"
  },
  {
    "OBJECT_NAME": "STARLINK-4037",
    "OBJECT_ID": "22053H",
    "EPOCH": "2025-11-11T07:14:36.690720",
    "MEAN_MOTION": 15.08847915,
    "ECCENTRICITY": 0.000122,
    "INCLINATION": 53.2181,
    "RA_OF_ASC_NODE": 325.5859,
    "ARG_OF_PERICENTER": 97.1504,
    "MEAN_ANOMALY": 262.9627,
    "EPHEMERIS_TYPE": 0,
    "CLASSIFICATION_TYPE": "U",
    "NORAD_CAT_ID": 52663,
    "ELEMENT_SET_NO": 999,
    "REV_AT_EPOCH": 19317,
    "BSTAR": 0.0,
    "MEAN_MOTION_DOT": -1.433e-05,
    "MEAN_MOTION_DDOT": 0.0,
    "TLE_LINE1": "1 52663U 22053H   25315.30181355 -.00001433  00000+0 -71934-4 0  9996",
    "TLE_LINE2": "2 52663  53.2181 325.5859 0001220  97.1504 262.9627 15.08847915193175",
    "COMMENT": "Grouped by shell and plane from TLE"
  },
  {
    "OBJECT_NAME": "STARLINK-4070",
    "OBJECT_ID": "22053J",
    "EPOCH": "2025-11-11T07:25:12.341568",
    "MEAN_MOTION": 15.08849045,
    "ECCENTRICITY": 0.0001392,
    "INCLINATION": 53.2179,
    "RA_OF_ASC_NODE": 325.5525,
    "ARG_OF_PERICENTER": 92.6417,
    "MEAN_ANOMALY": 267.4735,
    "EPHEMERIS_TYPE": 0,
    "CLASSIFICATION_TYPE": "U",
    "NORAD_CAT_ID": 52664,
    "ELEMENT_SET_NO": 999,
    "REV_AT_EPOCH": 19317,
    "BSTAR": 5.4335e-05,
    "MEAN_MOTION_DOT": 5.77e-06,
    "MEAN_MOTION_DDOT": 0.0,
    "TLE_LINE1": "1 52664U 22053J   25315.30917062  .00000577  00000+0  54335-4 0  9991",
    "TLE_LINE2": "2 52664  53.2179 325.5525 0001392  92.6417 267.4735 15.08849045193172",
    "COMMENT": "Grouped by shell and plane from TLE"
  },
  {
    "OBJECT_NAME": "STARLINK-4064",
    "OBJECT_ID": "22053K",
    "EPOCH": "2025-11-11T06:58:42.935808",
    "MEAN_MOTION": 15.08842475,
    "ECCENTRICITY": 0.0001386,
    "INCLINATION": 53.2189,
    "RA_OF_ASC_NODE": 325.6328,
    "ARG_OF_PERICENTER": 93.5299,
    "MEAN_ANOMALY": 266.5851,
    "EPHEMERIS_TYPE": 0,
    "CLASSIFICATION_TYPE": "U",
    "NORAD_CAT_ID": 52665,
    "ELEMENT_SET_NO": 999,
    "REV_AT_EPOCH": 19317,
    "BSTAR": 7.1711e-05,
    "MEAN_MOTION_DOT": 8.54e-06,
    "MEAN_MOTION_DDOT": 0.0,
    "TLE_LINE1": "1 52665U 22053K   25315.29077472  .00000854  00000+0  71711-4 0  9997",
    "TLE_LINE2": "2 52665  53.2189 325.6328 0001386  93.5299 266.5851 15.08842475193176",
    "COMMENT": "Grouped by shell and plane from TLE"
  },
  {
    "OBJECT_NAME": "STARLINK-4079",
    "OBJECT_ID": "22053L",
    "EPOCH": "2025-11-11T06:16:15.875904",
    "MEAN_MOTION": 15.08831217,
    "ECCENTRICITY": 0.0001819,
    "INCLINATION": 53.2179,
    "RA_OF_ASC_NODE": 325.3796,
    "ARG_OF_PERICENTER": 103.6635,
    "MEAN_ANOMALY": 256.456,
    "EPHEMERIS_TYPE": 0,
    "CLASSIFICATION_TYPE": "U",
    "NORAD_CAT_ID": 52666,
    "ELEMENT_SET_NO": 999,
    "REV_AT_EPOCH": 19317,
    "BSTAR": 0.00012788,
    "MEAN_MOTION_DOT": 1.747e-05,
    "MEAN_MOTION_DDOT": 0.0,
    "TLE_LINE1": "1 52666U 22053L   25315.26129486  .00001747  00000+0  12788-3 0  9998",
    "TLE_LINE2": "2 52666  53.2179 325.3796 0001819 103.6635 256.4560 15.08831217193177",
    "COMMENT": "Grouped by shell and plane from TLE"
  }
]